C/2014 M1 (PANSTARRS),e,160.2199,234.7853,337.1615,15263,0.0000005,0.99963321,0.0000,08/27.8170/2015,2000,g  9.0,4.0
# From MPC 91614
P/2014 M4 (PANSTARRS),e,3.3346,263.2835,147.9619,5.876544,0.0691865,0.59360535,138.4055,06/16.0/2020,2000,g 15.0,4.0
# From MPC103844
P/2014 MG4 (Spacewatch-PANSTARRS),e,9.3711,311.7351,299.0778,5.011585,0.0878499,0.25996533,224.4435,06/16.0/2020,2000,g  9.5,4.0
# From MPC 98560
P/2014 O3 (PANSTARRS),e,7.8087,87.6403,204.5221,7.559812,0.0474174,0.38639974,106.6189,06/16.0/2020,2000,g 10.5,4.0
# From MPEC 2020-AA5
C/2014 OE4 (PANSTARRS),h,12/12.6091/2016,81.3320,240.4032,65.8669,1.002756,6.248061,2000,11.0,2.0
# From MPC100578
C/2014 Q1 (PANSTARRS),e,43.0514,9.1311,119.8949,930.5399,0.0000347,0.99965759,0.0000,07/05.0330/2015,2000,g  8.0,4.0
# From MPC115880
C/2014 R3 (PANSTARRS),e,90.9085,334.0928,113.4591,8314,0.0000013,0.99912478,0.0000,08/08.7602/2016,2000,g  6.5,4.0
# From MPC 91615
P/2014 R5 (Lemmon-PANSTARRS),e,1.0883,126.5522,213.7038,4.057121,0.1206083,0.41337981,264.2212,06/16.0/2020,2000,g 15.0,4.0
# From MPC104790
C/2014 S2 (PANSTARRS),e,64.4853,8.1214,87.3421,170.6235,0.0004422,0.98779603,0.0000,12/08.9763/2015,2000,g 10.0,4.0
# From MPC 91616
P/2014 U4 (PANSTARRS),e,6.4280,11.9266,347.7251,3.508476,0.1499776,0.46540747,323.6286,06/16.0/2020,2000,g 18.0,4.0
# From MPC 95211
P/2014 V1 (PANSTARRS),e,22.5087,166.2055,177.5521,5.482076,0.0767868,0.53390211,151.4056,06/16.0/2020,2000,g 14.0,4.0
# From MPC 93586
P/2014 W1 (PANSTARRS),e,8.8391,246.2458,152.2947,4.460682,0.1046170,0.38861254,225.7928,06/16.0/2020,2000,g 15.5,4.0
# From MPC110493
C/2014 W2 (PANSTARRS),e,82.0392,69.9684,84.9394,586.4471,0.0000694,0.99544210,0.0000,03/08.3541/2016,2000,g  7.5,4.0
# From MPC105542
P/2014 W4 (PANSTARRS),e,15.2688,33.3497,67.9320,6.602069,0.0581010,0.35205083,94.6579,06/16.0/2020,2000,g 11.0,4.0
# From MPC 91616
C/2014 W8 (PANSTARRS),e,41.9679,224.8251,227.9731,169.0766,0.0004483,0.97031881,0.0000,09/08.6939/2015,2000,g 11.0,4.0
# From MPC115880
C/2014 W10 (PANSTARRS),e,82.8703,43.1233,43.6589,831.3841,0.0000411,0.99088925,0.0000,03/04.5259/2016,2000,g  8.0,4.0
# From MPC107047
C/2014 W11 (PANSTARRS),e,20.7534,294.9409,227.5724,9.559609,0.0333460,0.61064924,63.6920,06/16.0/2020,2000,g 10.0,4.0
# From MPC 93587
P/2014 W12 (Gibbs),e,8.5141,299.2903,36.9158,3.517729,0.1493862,0.52401480,304.9727,06/16.0/2020,2000,g 15.0,4.0
# From MPC 94281
P/2014 X1 (Elenin),e,25.9977,61.5006,34.0101,6.211419,0.0636675,0.70849522,126.8411,06/16.0/2020,2000,g 15.0,4.0
# From MPC100579
C/2014 Y1 (PANSTARRS),h,01/16.5629/2016,14.9140,19.5395,182.3410,1.001602,2.252128,2000,9.5,4.0
# From MPC 93587
C/2015 A2 (PANSTARRS),p,08/01.8353/2015,109.1696,208.8369,5.341055,258.5042,2000,10.5,4.0
# From MPC 92275
P/2015 A3 (PANSTARRS),e,172.5279,277.1592,249.2105,7.807037,0.0451830,0.85165878,87.8477,06/16.0/2020,2000,g 20.0,4.0
# From MPC 99270
P/2015 B1 (PANSTARRS),e,18.0259,353.0524,188.7833,9.502263,0.0336483,0.36917704,58.3560,06/16.0/2020,2000,g  8.5,4.0
# From MPC108592
C/2015 B2 (PANSTARRS),h,05/05.9390/2016,105.0067,341.8636,284.7144,1.000095,3.368806,2000,9.5,4.0
# From MPC109141
P/2015 B4 (Lemmon-PANSTARRS),e,1.7600,266.0254,227.5123,8.537006,0.0395135,0.56064929,77.3325,06/16.0/2020,2000,g 11.0,4.0
# From MPC101096
P/2015 C1 (TOTAS-Gibbs),e,13.8861,348.8307,178.3790,6.588410,0.0582818,0.56028685,109.2947,06/16.0/2020,2000,g 12.5,4.0
# From MPC119995
C/2015 D3 (PANSTARRS),h,05/03.0352/2016,128.5457,157.0460,2.9920,1.003894,8.148087,2000,5.5,4.0
# From MPC109141
P/2015 D5 (Kowalski),e,20.4943,74.0606,39.9634,8.977117,0.0366437,0.48886942,83.0845,06/16.0/2020,2000,g  9.0,4.0
# From MPC 96866
P/2015 D6 (Lemmon-PANSTARRS),e,20.2061,46.0916,125.2465,7.150420,0.0515474,0.36235747,93.1436,06/16.0/2020,2000,g 10.5,4.0
# From MPC112390
C/2015 ER61 (PANSTARRS),e,6.3440,235.1915,68.2439,470.4136,0.0000966,0.99778514,0.0000,05/10.3692/2017,2000,g 11.0,2.0
# From MPEC 2018-BF5
C/2015 E61-B (PANSTARRS),e,6.3456,235.2266,68.3331,1221,0.0000231,0.99914500,0.0000,05/10.3467/2017,2000,g 13.5,2.0
# From MPC109142
P/2015 F1 (PANSTARRS),e,2.8025,40.4009,187.4310,3.523598,0.1490132,0.27821424,285.7296,06/16.0/2020,2000,g 12.5,4.0
# From MPC115880
C/2015 F4 (Jacques),e,48.8086,285.9191,36.3235,117.7741,0.0007711,0.98607759,0.0000,08/12.0479/2015,2000,g 11.0,4.0
# From MPC102096
C/2015 GX (PANSTARRS),e,90.2576,235.4764,108.8005,16.16229,0.0151687,0.87867859,26.6105,06/16.0/2020,2000,g 14.0,4.0
# From MPC117068
C/2015 H2 (PANSTARRS),h,09/14.2738/2016,33.6643,350.6866,288.0521,1.005597,4.974497,2000,7.5,4.0
# From MPC100280
P/2015 HG16 (PANSTARRS),e,18.8350,59.1110,47.2612,4.751120,0.0951722,0.34969417,207.7960,06/16.0/2020,2000,g 12.5,4.0
# From MPC101096
C/2015 J2 (PANSTARRS),e,17.2722,56.7597,203.9112,295.9802,0.0001936,0.98535792,0.0000,09/10.0003/2015,2000,g 10.0,4.0
# From MPC 95733
P/2015 J3 (NEOWISE),e,8.1310,111.3517,129.4402,3.349028,0.1608148,0.55447450,310.1281,06/16.0/2020,2000,g 16.5,4.0
# From MPC 95213
P/2015 K5 (PANSTARRS),e,39.9457,134.1829,106.3000,6.718288,0.0566000,0.55396018,103.9541,06/16.0/2020,2000,g 13.5,4.0
# From MPC107684
P/2015 M2 (PANSTARRS),e,3.9734,86.5797,225.2562,7.224421,0.0507574,0.18111162,88.5183,06/16.0/2020,2000,g  8.5,4.0
# From MPC115881
C/2015 M3 (PANSTARRS),e,65.8728,143.0028,123.8964,138.7235,0.0006032,0.97434109,0.0000,08/26.1675/2015,2000,g 12.0,4.0
# From MPC112390
C/2015 O1 (PANSTARRS),h,02/19.4255/2018,127.2261,299.8518,89.6348,1.000824,3.730274,2000,6.5,4.0
# From MPC 96280
C/2015 P3 (SWAN),e,58.1982,87.9978,133.1265,267.0736,0.0002258,0.99729287,0.0000,07/27.3454/2015,2000,g 15.5,4.0
# From MPC 99819
P/2015 P4 (PANSTARRS),e,8.7179,104.7685,280.5817,6.051213,0.0662126,0.58421675,106.5930,06/16.0/2020,2000,g 14.0,4.0
# From MPC102952
P/2015 PD229 (Cameron-ISON),e,2.0261,342.6427,352.3685,7.179722,0.0512322,0.32803804,90.5395,06/16.0/2020,2000,g 11.5,2.0
# From MPC 99819
P/2015 Q1 (Scotti),e,22.3938,203.0001,199.8619,3.471005,0.1524128,0.47857289,267.3868,06/16.0/2020,2000,g 14.0,4.0
# From MPC 96867
P/2015 Q2 (Pimentel),e,146.4759,228.3867,244.4315,7.345290,0.0495097,0.75111972,86.3866,06/16.0/2020,2000,g 15.5,4.0
# From MPC 98562
P/2015 R1 (PANSTARRS),e,22.6749,48.4666,300.3897,5.880930,0.0691091,0.63380488,125.4900,06/16.0/2020,2000,g 14.0,4.0
# From MPC 95734
P/2015 R2 (PANSTARRS),e,15.4747,168.6074,149.7187,4.489182,0.1036223,0.45268333,189.8096,06/16.0/2020,2000,g 14.5,4.0
# From MPC117068
C/2015 T2 (PANSTARRS),e,124.5489,51.0427,30.6628,2377,0.0000085,0.99708326,0.0000,05/18.7205/2017,2000,g  8.0,4.0
# From MPC 96280
P/2015 T3 (PANSTARRS),e,13.0937,120.5019,178.6330,4.326181,0.1095335,0.50818108,359.9227,12/21.0/2014,2000,g 14.0,4.0
# From MPC102953
C/2015 T4 (PANSTARRS),e,87.9704,251.8058,270.0623,80.10788,0.0013746,0.97131332,0.0000,06/17.2499/2016,2000,g 11.0,4.0
# From MPC102097
C/2015 T5 (Sheppard-Tholen),e,11.0499,311.0731,61.8086,28.09551,0.0066183,0.66784862,10.6329,06/16.0/2020,2000,g  7.5,4.0
# From MPC102953
P/2015 TO19 (Lemmon-PANSTARRS),e,6.4995,321.6482,89.1692,4.557237,0.1013098,0.35781462,158.4251,06/16.0/2020,2000,g 14.0,4.0
# From MPC110080
P/2015 TP200 (LINEAR),e,8.7746,6.9858,82.6900,7.280157,0.0501756,0.53485657,66.6201,06/16.0/2020,2000,g 11.0,4.0
# From MPC101097
C/2015 TQ209 (LINEAR),e,11.3031,223.3609,282.1763,646.7884,0.0000599,0.99781046,0.0000,08/25.9553/2016,2000,g 10.5,4.0
# From MPC115881
C/2015 V1 (PANSTARRS),e,139.2237,197.1906,179.6201,3323,0.0000051,0.99871566,0.0000,12/17.1934/2017,2000,g  6.5,4.0
# From MPC112390
C/2015 V2 (Johnson),h,06/12.1250/2017,49.8690,69.8668,164.9901,1.001869,1.642078,2000,5.0,4.0
# From MPC102953
C/2015 V3 (PANSTARRS),e,86.2465,2.2446,0.7137,627.6537,0.0000627,0.99325789,0.0000,11/23.9947/2015,2000,g  9.0,4.0
# From MPC104791
C/2015 V4 (PANSTARRS),e,60.7717,179.9202,307.0293,18.49444,0.0123920,0.70460697,17.1924,06/16.0/2020,2000,g  8.5,4.0
# From MPC115881
C/2015 VL62 (Lemmon-Yeung-PANSTARRS),h,08/27.9772/2017,165.8152,95.0899,128.7402,1.001103,2.715066,2000,8.0,4.0
# From MPC102098
C/2015 WZ (PANSTARRS),e,134.5834,40.1541,66.6888,146.3833,0.0005565,0.99058077,0.0000,04/13.8884/2016,2000,g 15.0,4.0
# From MPC109142
C/2015 W1 (Gibbs),e,87.3660,114.3162,48.1907,6941,0.0000017,0.99967687,0.0000,05/14.6302/2016,2000,g 13.0,4.0
# From MPC101098
P/2015 W2 (Catalina),e,11.6070,294.2582,117.5335,7.299200,0.0499794,0.63349300,86.0063,06/16.0/2020,2000,g 13.0,4.0
# From MPC101098
P/2015 X1 (PANSTARRS),e,12.1516,161.7731,218.9666,3.631025,0.1424492,0.41893081,244.1276,06/16.0/2020,2000,g 16.0,4.0
# From MPEC 2020-AA5
C/2015 XY1 (Lemmon),h,04/28.3231/2018,148.8559,281.6260,196.2631,1.003573,7.925221,2000,5.5,4.0
# From MPC100281
C/2015 X2 (Catalina),e,72.0749,101.0990,42.3523,15.80560,0.0156851,0.87810196,25.7478,06/16.0/2020,2000,g 16.0,4.0
# From MPC 97498
P/2015 X3 (PANSTARRS),e,24.3832,77.3289,306.6533,5.011073,0.0878634,0.43840854,155.9277,06/16.0/2020,2000,g 15.0,4.0
# From MPC109142
C/2015 X4 (Elenin),e,29.5022,262.6163,176.2405,17.95055,0.0129595,0.81111034,21.8711,06/16.0/2020,2000,g 10.0,4.0
# From MPC119995
C/2015 X5 (PANSTARRS),h,12/29.9289/2017,124.3082,122.3462,27.6885,1.002557,6.798798,2000,7.5,4.0
# From MPC115881
P/2015 X6 (PANSTARRS),e,4.5648,106.9466,329.8867,2.752673,0.2158102,0.17238688,333.4149,06/16.0/2020,2000,g 16.0,4.0
# From MPC109143
C/2015 X7 (ATLAS),h,07/29.3883/2016,57.5614,139.9204,348.4332,1.000036,3.684136,2000,9.0,4.0
# From MPC107048
C/2015 X8 (NEOWISE),e,155.1971,191.1557,20.4121,19.75891,0.0112217,0.94003549,19.0398,06/16.0/2020,2000,g 16.0,4.0
# From MPC109143
C/2015 Y1 (LINEAR),e,71.1678,135.8160,24.6845,250.8871,0.0002480,0.98996906,0.0000,05/14.0344/2016,2000,g 12.0,4.0
# From MPC105543
C/2015 YG1 (NEOWISE),e,57.2846,350.5474,102.4946,17.00111,0.0140601,0.87851615,24.2295,06/16.0/2020,2000,g 13.0,4.0
# From MPC119995
C/2016 A1 (PANSTARRS),h,11/22.8755/2017,121.2052,128.2058,10.2742,1.001773,5.324764,2000,6.0,4.0
# From MPC100282
